[{"OBJECT_NAME":"STARLINK-6222","OBJECT_ID":"2023-064AK","EPOCH":"2026-03-30T04:43:28.917408","MEAN_MOTION":14.98329836,"ECCENTRICITY":0.0003301,"INCLINATION":69.9991,"RA_OF_ASC_NODE":72.647,"ARG_OF_PERICENTER":270.8647,"MEAN_ANOMALY":89.2133,"EPHEMERIS_TYPE":0,"CLASSIFICATION_TYPE":"U","NORAD_CAT_ID":56481,"ELEMENT_SET_NO":999,"REV_AT_EPOCH":15881,"BSTAR":5.2963e-5,"MEAN_MOTION_DOT":5.39e-6,"MEAN_MOTION_DDOT":0},{"OBJECT_NAME":"STARLINK-6220","OBJECT_ID":"2023-064AL","EPOCH":"2026-03-30T05:01:30.876960","MEAN_MOTION":14.98329123,"ECCENTRICITY":0.0003087,"INCLINATION":69.9994,"RA_OF_ASC_NODE":72.6922,"ARG_OF_PERICENTER":268.3938,"MEAN_ANOMALY":91.6868,"EPHEMERIS_TYPE":0,"CLASSIFICATION_TYPE":"U","NORAD_CAT_ID":56482,"ELEMENT_SET_NO":999,"REV_AT_EPOCH":15881,"BSTAR":3.5248e-5,"MEAN_MOTION_DOT":3.28e-6,"MEAN_MOTION_DDOT":0},{"OBJECT_NAME":"STARLINK-5868","OBJECT_ID":"2023-064AM","EPOCH":"2026-03-30T01:43:14.020320","MEAN_MOTION":14.98331073,"ECCENTRICITY":0.0003351,"INCLINATION":69.9992,"RA_OF_ASC_NODE":73.0102,"ARG_OF_PERICENTER":269.6177,"MEAN_ANOMALY":90.4598,"EPHEMERIS_TYPE":0,"CLASSIFICATION_TYPE":"U","NORAD_CAT_ID":56483,"ELEMENT_SET_NO":999,"REV_AT_EPOCH":15879,"BSTAR":1.9618e-5,"MEAN_MOTION_DOT":1.41e-6,"MEAN_MOTION_DDOT":0},{"OBJECT_NAME":"STARLINK-6221","OBJECT_ID":"2023-064AN","EPOCH":"2026-03-30T04:49:29.633088","MEAN_MOTION":14.98328119,"ECCENTRICITY":0.0003195,"INCLINATION":69.9991,"RA_OF_ASC_NODE":72.6619,"ARG_OF_PERICENTER":270.8999,"MEAN_ANOMALY":89.1794,"EPHEMERIS_TYPE":0,"CLASSIFICATION_TYPE":"U","NORAD_CAT_ID":56484,"ELEMENT_SET_NO":999,"REV_AT_EPOCH":15880,"BSTAR":-3.4221e-6,"MEAN_MOTION_DOT":-1.34e-6,"MEAN_MOTION_DDOT":0},{"OBJECT_NAME":"STARLINK-6210","OBJECT_ID":"2023-064AP","EPOCH":"2026-03-30T04:25:26.904288","MEAN_MOTION":14.98330449,"ECCENTRICITY":0.0003324,"INCLINATION":69.9993,"RA_OF_ASC_NODE":72.6022,"ARG_OF_PERICENTER":269.4404,"MEAN_ANOMALY":90.6374,"EPHEMERIS_TYPE":0,"CLASSIFICATION_TYPE":"U","NORAD_CAT_ID":56485,"ELEMENT_SET_NO":999,"REV_AT_EPOCH":15881,"BSTAR":-3.3294e-6,"MEAN_MOTION_DOT":-1.33e-6,"MEAN_MOTION_DDOT":0},{"OBJECT_NAME":"STARLINK-6196","OBJECT_ID":"2023-064AR","EPOCH":"2026-03-30T04:01:05.083680","MEAN_MOTION":14.98333168,"ECCENTRICITY":0.0002991,"INCLINATION":70.0004,"RA_OF_ASC_NODE":52.679,"ARG_OF_PERICENTER":269.7104,"MEAN_ANOMALY":90.3712,"EPHEMERIS_TYPE":0,"CLASSIFICATION_TYPE":"U","NORAD_CAT_ID":56487,"ELEMENT_SET_NO":999,"REV_AT_EPOCH":15930,"BSTAR":6.2128e-5,"MEAN_MOTION_DOT":6.48e-6,"MEAN_MOTION_DDOT":0},{"OBJECT_NAME":"STARLINK-6204","OBJECT_ID":"2023-064AS","EPOCH":"2026-03-30T03:25:03.391104","MEAN_MOTION":14.98330134,"ECCENTRICITY":0.0003477,"INCLINATION":70.0002,"RA_OF_ASC_NODE":52.9891,"ARG_OF_PERICENTER":269.1244,"MEAN_ANOMALY":90.9517,"EPHEMERIS_TYPE":0,"CLASSIFICATION_TYPE":"U","NORAD_CAT_ID":56488,"ELEMENT_SET_NO":999,"REV_AT_EPOCH":15929,"BSTAR":7.1695e-5,"MEAN_MOTION_DOT":7.63e-6,"MEAN_MOTION_DDOT":0},{"OBJECT_NAME":"STARLINK-5923","OBJECT_ID":"2023-064AT","EPOCH":"2026-03-30T04:43:09.800544","MEAN_MOTION":14.98327697,"ECCENTRICITY":0.0002932,"INCLINATION":70.0004,"RA_OF_ASC_NODE":52.7762,"ARG_OF_PERICENTER":271.5531,"MEAN_ANOMALY":88.5292,"EPHEMERIS_TYPE":0,"CLASSIFICATION_TYPE":"U","NORAD_CAT_ID":56489,"ELEMENT_SET_NO":999,"REV_AT_EPOCH":15930,"BSTAR":-2.0461e-7,"MEAN_MOTION_DOT":-9.5e-7,"MEAN_MOTION_DDOT":0},{"OBJECT_NAME":"STARLINK-5873","OBJECT_ID":"2023-064AU","EPOCH":"2026-03-30T03:37:04.790496","MEAN_MOTION":14.98329393,"ECCENTRICITY":0.0002957,"INCLINATION":70.0001,"RA_OF_ASC_NODE":53.017,"ARG_OF_PERICENTER":268.9123,"MEAN_ANOMALY":91.1698,"EPHEMERIS_TYPE":0,"CLASSIFICATION_TYPE":"U","NORAD_CAT_ID":56490,"ELEMENT_SET_NO":999,"REV_AT_EPOCH":15929,"BSTAR":3.6027e-5,"MEAN_MOTION_DOT":3.37e-6,"MEAN_MOTION_DDOT":0},{"OBJECT_NAME":"STARLINK-5842","OBJECT_ID":"2023-064AV","EPOCH":"2026-03-30T04:37:08.950944","MEAN_MOTION":14.98334074,"ECCENTRICITY":0.000278,"INCLINATION":70,"RA_OF_ASC_NODE":52.7605,"ARG_OF_PERICENTER":269.4493,"MEAN_ANOMALY":90.6348,"EPHEMERIS_TYPE":0,"CLASSIFICATION_TYPE":"U","NORAD_CAT_ID":56491,"ELEMENT_SET_NO":999,"REV_AT_EPOCH":15930,"BSTAR":-6.1775e-6,"MEAN_MOTION_DOT":-1.67e-6,"MEAN_MOTION_DDOT":0},{"OBJECT_NAME":"STARLINK-5846","OBJECT_ID":"2023-064AW","EPOCH":"2026-03-30T04:31:07.993344","MEAN_MOTION":14.98333064,"ECCENTRICITY":0.0002954,"INCLINATION":70.0003,"RA_OF_ASC_NODE":52.7459,"ARG_OF_PERICENTER":270.508,"MEAN_ANOMALY":89.574,"EPHEMERIS_TYPE":0,"CLASSIFICATION_TYPE":"U","NORAD_CAT_ID":56492,"ELEMENT_SET_NO":999,"REV_AT_EPOCH":15930,"BSTAR":4.71e-5,"MEAN_MOTION_DOT":4.69e-6,"MEAN_MOTION_DDOT":0},{"OBJECT_NAME":"STARLINK-5841","OBJECT_ID":"2023-064AX","EPOCH":"2026-03-30T04:12:46.883232","MEAN_MOTION":14.98331897,"ECCENTRICITY":0.0002953,"INCLINATION":70.0013,"RA_OF_ASC_NODE":32.8205,"ARG_OF_PERICENTER":271.6018,"MEAN_ANOMALY":88.4803,"EPHEMERIS_TYPE":0,"CLASSIFICATION_TYPE":"U","NORAD_CAT_ID":56493,"ELEMENT_SET_NO":999,"REV_AT_EPOCH":15979,"BSTAR":7.9575e-5,"MEAN_MOTION_DOT":8.57e-6,"MEAN_MOTION_DDOT":0},{"OBJECT_NAME":"STARLINK-5530","OBJECT_ID":"2023-064AY","EPOCH":"2026-03-30T04:31:22.582848","MEAN_MOTION":14.98343624,"ECCENTRICITY":0.000393,"INCLINATION":69.9999,"RA_OF_ASC_NODE":52.7458,"ARG_OF_PERICENTER":263.4752,"MEAN_ANOMALY":96.596,"EPHEMERIS_TYPE":0,"CLASSIFICATION_TYPE":"U","NORAD_CAT_ID":56494,"ELEMENT_SET_NO":999,"REV_AT_EPOCH":15929,"BSTAR":0.00011673,"MEAN_MOTION_DOT":1.3e-5,"MEAN_MOTION_DDOT":0},{"OBJECT_NAME":"STARLINK-5529","OBJECT_ID":"2023-064AZ","EPOCH":"2026-03-30T04:19:07.477824","MEAN_MOTION":14.98342171,"ECCENTRICITY":0.0002953,"INCLINATION":70.0001,"RA_OF_ASC_NODE":52.7166,"ARG_OF_PERICENTER":268.6991,"MEAN_ANOMALY":91.3829,"EPHEMERIS_TYPE":0,"CLASSIFICATION_TYPE":"U","NORAD_CAT_ID":56495,"ELEMENT_SET_NO":999,"REV_AT_EPOCH":15930,"BSTAR":0.00011994,"MEAN_MOTION_DOT":1.339e-5,"MEAN_MOTION_DDOT":0},{"OBJECT_NAME":"STARLINK-5526","OBJECT_ID":"2023-064BA","EPOCH":"2026-03-30T04:13:06.394080","MEAN_MOTION":14.98323718,"ECCENTRICITY":0.0003147,"INCLINATION":70,"RA_OF_ASC_NODE":52.7025,"ARG_OF_PERICENTER":269.0393,"MEAN_ANOMALY":91.0405,"EPHEMERIS_TYPE":0,"CLASSIFICATION_TYPE":"U","NORAD_CAT_ID":56496,"ELEMENT_SET_NO":999,"REV_AT_EPOCH":15930,"BSTAR":7.1758e-5,"MEAN_MOTION_DOT":7.63e-6,"MEAN_MOTION_DDOT":0},{"OBJECT_NAME":"STARLINK-5527","OBJECT_ID":"2023-064BB","EPOCH":"2026-03-30T02:31:12.152064","MEAN_MOTION":14.98327216,"ECCENTRICITY":0.0003017,"INCLINATION":70.0001,"RA_OF_ASC_NODE":52.8574,"ARG_OF_PERICENTER":269.5221,"MEAN_ANOMALY":90.5593,"EPHEMERIS_TYPE":0,"CLASSIFICATION_TYPE":"U","NORAD_CAT_ID":56497,"ELEMENT_SET_NO":999,"REV_AT_EPOCH":15929,"BSTAR":2.7996e-5,"MEAN_MOTION_DOT":2.41e-6,"MEAN_MOTION_DDOT":0},{"OBJECT_NAME":"STARLINK-5522","OBJECT_ID":"2023-064BC","EPOCH":"2026-03-30T04:25:07.453920","MEAN_MOTION":14.98335058,"ECCENTRICITY":0.0003002,"INCLINATION":70,"RA_OF_ASC_NODE":52.7306,"ARG_OF_PERICENTER":270.8916,"MEAN_ANOMALY":89.1899,"EPHEMERIS_TYPE":0,"CLASSIFICATION_TYPE":"U","NORAD_CAT_ID":56498,"ELEMENT_SET_NO":999,"REV_AT_EPOCH":15930,"BSTAR":5.4411e-5,"MEAN_MOTION_DOT":5.56e-6,"MEAN_MOTION_DDOT":0},{"OBJECT_NAME":"STARLINK-5775","OBJECT_ID":"2023-065A","EPOCH":"2026-03-30T00:22:11.040384","MEAN_MOTION":15.26747117,"ECCENTRICITY":0.0001607,"INCLINATION":43.0036,"RA_OF_ASC_NODE":97.2402,"ARG_OF_PERICENTER":283.7508,"MEAN_ANOMALY":76.3165,"EPHEMERIS_TYPE":0,"CLASSIFICATION_TYPE":"U","NORAD_CAT_ID":56503,"ELEMENT_SET_NO":999,"REV_AT_EPOCH":15971,"BSTAR":5.1967e-5,"MEAN_MOTION_DOT":1.135e-5,"MEAN_MOTION_DDOT":0},{"OBJECT_NAME":"STARLINK-5716","OBJECT_ID":"2023-065B","EPOCH":"2026-03-30T04:00:01.999584","MEAN_MOTION":15.26744294,"ECCENTRICITY":0.0001137,"INCLINATION":43.0004,"RA_OF_ASC_NODE":96.6343,"ARG_OF_PERICENTER":280.7084,"MEAN_ANOMALY":87.6598,"EPHEMERIS_TYPE":0,"CLASSIFICATION_TYPE":"U","NORAD_CAT_ID":56504,"ELEMENT_SET_NO":999,"REV_AT_EPOCH":581,"BSTAR":-0.00012993,"MEAN_MOTION_DOT":-3.743e-5,"MEAN_MOTION_DDOT":0},{"OBJECT_NAME":"STARLINK-5763","OBJECT_ID":"2023-065C","EPOCH":"2026-03-30T04:00:01.999584","MEAN_MOTION":15.26540271,"ECCENTRICITY":0.0001057,"INCLINATION":42.9991,"RA_OF_ASC_NODE":97.081,"ARG_OF_PERICENTER":290.663,"MEAN_ANOMALY":247.8043,"EPHEMERIS_TYPE":0,"CLASSIFICATION_TYPE":"U","NORAD_CAT_ID":56505,"ELEMENT_SET_NO":999,"REV_AT_EPOCH":581,"BSTAR":0.0031881,"MEAN_MOTION_DOT":0.00085734,"MEAN_MOTION_DDOT":0},{"OBJECT_NAME":"STARLINK-5340","OBJECT_ID":"2023-065D","EPOCH":"2026-03-30T04:00:01.999584","MEAN_MOTION":15.23918316,"ECCENTRICITY":9.5e-5,"INCLINATION":42.9996,"RA_OF_ASC_NODE":85.1548,"ARG_OF_PERICENTER":275.6296,"MEAN_ANOMALY":160.7818,"EPHEMERIS_TYPE":0,"CLASSIFICATION_TYPE":"U","NORAD_CAT_ID":56506,"ELEMENT_SET_NO":999,"REV_AT_EPOCH":576,"BSTAR":0.063858,"MEAN_MOTION_DOT":0.01720266,"MEAN_MOTION_DDOT":0},{"OBJECT_NAME":"STARLINK-5333","OBJECT_ID":"2023-065E","EPOCH":"2026-03-30T04:27:58.258944","MEAN_MOTION":15.02541121,"ECCENTRICITY":0.0001591,"INCLINATION":43.0041,"RA_OF_ASC_NODE":60.3002,"ARG_OF_PERICENTER":274.2321,"MEAN_ANOMALY":85.834,"EPHEMERIS_TYPE":0,"CLASSIFICATION_TYPE":"U","NORAD_CAT_ID":56507,"ELEMENT_SET_NO":999,"REV_AT_EPOCH":16015,"BSTAR":8.1702e-6,"MEAN_MOTION_DOT":-9.3e-7,"MEAN_MOTION_DDOT":0},{"OBJECT_NAME":"STARLINK-5335","OBJECT_ID":"2023-065F","EPOCH":"2026-03-30T01:56:54.638880","MEAN_MOTION":15.26746637,"ECCENTRICITY":0.000124,"INCLINATION":43.0036,"RA_OF_ASC_NODE":96.8684,"ARG_OF_PERICENTER":266.7912,"MEAN_ANOMALY":93.2798,"EPHEMERIS_TYPE":0,"CLASSIFICATION_TYPE":"U","NORAD_CAT_ID":56508,"ELEMENT_SET_NO":999,"REV_AT_EPOCH":15972,"BSTAR":5.3946e-5,"MEAN_MOTION_DOT":1.188e-5,"MEAN_MOTION_DDOT":0},{"OBJECT_NAME":"STARLINK-5334","OBJECT_ID":"2023-065G","EPOCH":"2026-03-30T02:06:17.989344","MEAN_MOTION":15.26744985,"ECCENTRICITY":0.0001537,"INCLINATION":43.0027,"RA_OF_ASC_NODE":96.9125,"ARG_OF_PERICENTER":268.2555,"MEAN_ANOMALY":91.812,"EPHEMERIS_TYPE":0,"CLASSIFICATION_TYPE":"U","NORAD_CAT_ID":56509,"ELEMENT_SET_NO":999,"REV_AT_EPOCH":15972,"BSTAR":6.7831e-5,"MEAN_MOTION_DOT":1.56e-5,"MEAN_MOTION_DDOT":0}]
